#aV2013  7 14  0  0  0.00000000     288 DD+AD WGS84 FIT  NGA
## 1749      0.00000000   300.00000000 56487 0.0000000000000
+   31     1  2  3  4  5  6  7  8  9 10 11 12 13 14 15 16 17
+         18 19 20 21 22 23 24 25 26 27 28 29 31 32  0  0  0
+          0  0  0  0  0  0  0  0  0  0  0  0  0  0  0  0  0
+          0  0  0  0  0  0  0  0  0  0  0  0  0  0  0  0  0
+          0  0  0  0  0  0  0  0  0  0  0  0  0  0  0  0  0
++         2  2  2  2  2  2  2  2  2  2  2  2  2  2  2  2  2
++         2  2  2  2  2  2  2  2  2  2  2  2  2  2  2  0  0
++         0  0  0  0  0  0  0  0  0  0  0  0  0  0  0  0  0
++         0  0  0  0  0  0  0  0  0  0  0  0  0  0  0  0  0
++         0  0  0  0  0  0  0  0  0  0  0  0  0  0  0  0  0
%c cc cc ccc ccc cccc cccc cccc cccc ccccc ccccc ccccc ccccc
%c cc cc ccc ccc cccc cccc cccc cccc ccccc ccccc ccccc ccccc
%f  0.0000000  0.000000000  0.00000000000  0.000000000000000
%f  0.0000000  0.000000000  0.00000000000  0.000000000000000
%i    0    0    0    0      0      0      0      0         0
%i    0    0    0    0      0      0      0      0         0
/*      NGA, ST. LOUIS,MO.                                  
/*   EPHEMERIS COMPUTED FROM  1 DAYS OF DATA
/*   EPOCHA SMOOTHER  
/* CCCCCCCCCCCCCCCCCCCCCCCCCCCCCCCCCCCCCCCCCCCCCCCCCCCCCCCCC
*  2013  7 14  2 10  0.00000000                                                 
P  1  19067.003957  13611.242704 -12626.774335     49.663009                    
V  1 -16053.244848  -1514.505727 -25815.804165      0.050202                    
P  2   4835.383861 -15077.404408  21519.887604    441.615656                    
V  2  26239.495245   6061.261170  -2173.368907      0.017957                    
P  3  -5139.731113  23136.212747 -12300.449155    232.377780                    
V  3 -11029.315326  10519.872884  25701.238827      0.048736                    
P  4  17539.117043  -9166.351759  17554.960718    271.617136                    
V  4  21809.646473   7016.256059 -17564.896679      0.102772                    
P  5   -353.698407 -24708.797594   9514.701000   -398.543461                    
V  5   6418.165664  10786.134834  28318.680686     -0.004951                    
P  6 -11879.976820  22426.391348  -7071.932356    143.738403                    
V  6  -8598.149415   4817.712395  29797.741081     -0.177850                    
P  7  26075.676061   5691.464073  -1467.628370    235.787572                    
V  7   1318.024175   2498.334379  31795.648007      0.042082                    
P  8  23970.804350    405.911171 -11961.533165      7.363836                    
V  8  13881.925415   6008.905970  27174.998890      0.002444                    
P  9  21022.774985  -5846.233429 -15746.746859    254.323572                    
V  9  18146.398522   5529.516995  22891.151176      0.025988                    
P 10  11569.843707 -12461.151247  20006.120248    -86.878751                    
V 10   8490.722672  24864.909273  10837.017083     -0.013584                    
P 11  13056.652894  14327.345691 -18703.465651   -400.572604                    
V 11 -22880.562782   3543.982435 -13316.990867     -0.034968                    
P 12 -10419.427952 -23795.884607   5987.969327    144.659298                    
V 12   -176.176172  -7816.378701 -30936.780425      0.021015                    
P 13  18138.028972   1334.083626  19272.078522    100.210624                    
V 13 -17972.023354  16916.241016  15498.523377     -0.037192                    
P 14 -21237.156809  14939.747588  -4983.285465    219.379820                    
V 14   3171.396251  -6310.065258 -31302.845309     -0.004447                    
P 15  -5310.568543 -16290.673123 -20262.663343   -127.502975                    
V 15  18062.453017 -18467.903799  10386.025865     -0.016870                    
P 16   -817.879400  24414.230206   9965.810507   -250.222783                    
V 16  -5073.458721 -11910.086096  29004.405554      0.005025                    
P 17  21089.697654 -14530.003949  -6338.495949     -0.704313                    
V 17  -4051.779528   7845.100977 -30639.716569     -0.038510                    
P 18 -16819.843459  -4453.629804 -19733.637862    263.516856                    
V 18  -6320.592740 -25275.710199  10514.877553      0.019414                    
P 19   -399.924147  18220.022411 -19268.691303   -388.600746                    
V 19 -19265.916176  15027.990846  15107.910475     -0.029326                    
P 20  14958.352673  19535.398628   9925.000863    109.221082                    
V 20   1172.054429  13278.226043 -27354.590214      0.022867                    
P 21 -26249.951187  -3023.871398  -4102.506158   -308.220527                    
V 21  -4951.869672  -4550.109887  30195.999644     -0.019715                    
P 22 -13515.072907   9267.375793 -20681.011248    175.495300                    
V 22  -8509.693642 -25524.344350  -5966.374972      0.016155                    
P 23  11804.058430   9886.602539  21729.639694     67.189817                    
V 23 -19082.497422  19681.709205   1015.922632     -0.035345                    
P 24 -15837.867437 -14718.708344 -15466.489837     -9.947748                    
V 24  19562.803720   2385.199078 -22277.337487     -0.007306                    
P 25 -15880.142376 -13439.396978  16512.072876    121.868595                    
V 25  -4677.312686 -20539.743519 -21044.265745      0.051034                    
P 26   9375.799885 -20782.436876 -13983.295940     95.677131                    
V 26  13779.462908  -9744.843068  25184.892768      0.166841                    
P 27  -9827.503018  21977.691969 -11215.217308    -10.503528                    
V 27 -11497.531055   8736.618504  27219.279999     -0.046308                    
P 28  13748.765465  -4547.300364 -21678.595456    275.513656                    
V 28   6897.068393  28053.378756  -1639.089425      0.032242                    
P 29 -17088.745661  -2860.904200  20162.337023    453.305215                    
V 29  17651.017601 -18428.198862  12417.898036      0.031751                    
P 31 -16733.520750   8744.862003  18962.527601    320.616223                    
V 31 -22563.213082  -6905.570564 -16604.198887      0.010554                    
P 32   7722.075360  25518.651734   3280.733100   -558.237870                    
V 32  -1842.366640   4428.108111 -30783.513622      0.007794                    
EOF
